[{"OBJECT_NAME":"KUIPER-00028","OBJECT_ID":"2025-088T","EPOCH":"2026-03-02T11:18:29.340288","MEAN_MOTION":14.79933233,"ECCENTRICITY":5.04e-5,"INCLINATION":51.9011,"RA_OF_ASC_NODE":124.9749,"ARG_OF_PERICENTER":71.1758,"MEAN_ANOMALY":288.9259,"EPHEMERIS_TYPE":0,"CLASSIFICATION_TYPE":"U","NORAD_CAT_ID":63741,"ELEMENT_SET_NO":999,"REV_AT_EPOCH":4699,"BSTAR":0.0017159687,"MEAN_MOTION_DOT":0.00012885,"MEAN_MOTION_DDOT":0},{"OBJECT_NAME":"KUIPER-00029","OBJECT_ID":"2025-088U","EPOCH":"2026-03-02T10:08:18.806496","MEAN_MOTION":14.83579183,"ECCENTRICITY":7.218e-5,"INCLINATION":51.9017,"RA_OF_ASC_NODE":122.9005,"ARG_OF_PERICENTER":102.0941,"MEAN_ANOMALY":258.0104,"EPHEMERIS_TYPE":0,"CLASSIFICATION_TYPE":"U","NORAD_CAT_ID":63742,"ELEMENT_SET_NO":999,"REV_AT_EPOCH":4654,"BSTAR":0.00082738976,"MEAN_MOTION_DOT":6.663e-5,"MEAN_MOTION_DDOT":0},{"OBJECT_NAME":"KUIPER-00030","OBJECT_ID":"2025-088V","EPOCH":"2026-03-02T14:54:26.108928","MEAN_MOTION":14.79960916,"ECCENTRICITY":0.0010575,"INCLINATION":51.9008,"RA_OF_ASC_NODE":141.803,"ARG_OF_PERICENTER":49.66,"MEAN_ANOMALY":310.5285,"EPHEMERIS_TYPE":0,"CLASSIFICATION_TYPE":"U","NORAD_CAT_ID":63743,"ELEMENT_SET_NO":999,"REV_AT_EPOCH":4658,"BSTAR":-2.3616e-5,"MEAN_MOTION_DOT":-4.04e-6,"MEAN_MOTION_DDOT":0},{"OBJECT_NAME":"KUIPER-00031","OBJECT_ID":"2025-088W","EPOCH":"2026-03-02T10:18:31.779072","MEAN_MOTION":14.83574537,"ECCENTRICITY":0.00023481,"INCLINATION":51.8996,"RA_OF_ASC_NODE":127.9819,"ARG_OF_PERICENTER":123.6071,"MEAN_ANOMALY":236.5118,"EPHEMERIS_TYPE":0,"CLASSIFICATION_TYPE":"U","NORAD_CAT_ID":63744,"ELEMENT_SET_NO":999,"REV_AT_EPOCH":4647,"BSTAR":0.00083962801,"MEAN_MOTION_DOT":6.764e-5,"MEAN_MOTION_DDOT":0},{"OBJECT_NAME":"KUIPER-00032","OBJECT_ID":"2025-088X","EPOCH":"2026-03-02T09:17:09.757536","MEAN_MOTION":15.37025649,"ECCENTRICITY":0.00052412,"INCLINATION":51.8697,"RA_OF_ASC_NODE":59.5282,"ARG_OF_PERICENTER":87.0558,"MEAN_ANOMALY":273.1028,"EPHEMERIS_TYPE":0,"CLASSIFICATION_TYPE":"U","NORAD_CAT_ID":63745,"ELEMENT_SET_NO":999,"REV_AT_EPOCH":4842,"BSTAR":0.00052933621,"MEAN_MOTION_DOT":0.00019139,"MEAN_MOTION_DDOT":0},{"OBJECT_NAME":"KUIPER-00033","OBJECT_ID":"2025-088Y","EPOCH":"2026-03-02T13:08:52.308960","MEAN_MOTION":14.83364967,"ECCENTRICITY":7.37e-5,"INCLINATION":51.9012,"RA_OF_ASC_NODE":157.612,"ARG_OF_PERICENTER":44.1966,"MEAN_ANOMALY":315.9057,"EPHEMERIS_TYPE":0,"CLASSIFICATION_TYPE":"U","NORAD_CAT_ID":63746,"ELEMENT_SET_NO":999,"REV_AT_EPOCH":4655,"BSTAR":0.00086132,"MEAN_MOTION_DOT":6.909e-5,"MEAN_MOTION_DDOT":0},{"OBJECT_NAME":"KUIPER-00034","OBJECT_ID":"2025-088Z","EPOCH":"2026-03-02T08:50:47.761440","MEAN_MOTION":14.83525494,"ECCENTRICITY":0.00017032,"INCLINATION":51.9012,"RA_OF_ASC_NODE":120.7502,"ARG_OF_PERICENTER":332.5432,"MEAN_ANOMALY":27.5442,"EPHEMERIS_TYPE":0,"CLASSIFICATION_TYPE":"U","NORAD_CAT_ID":63747,"ELEMENT_SET_NO":999,"REV_AT_EPOCH":4673,"BSTAR":0.00069375968,"MEAN_MOTION_DOT":5.541e-5,"MEAN_MOTION_DDOT":0},{"OBJECT_NAME":"KUIPER-00035","OBJECT_ID":"2025-088AA","EPOCH":"2026-03-02T22:00:01.999584","MEAN_MOTION":14.8321678,"ECCENTRICITY":0.00038647,"INCLINATION":51.8993,"RA_OF_ASC_NODE":143.9758,"ARG_OF_PERICENTER":55.73,"MEAN_ANOMALY":151.7584,"EPHEMERIS_TYPE":0,"CLASSIFICATION_TYPE":"U","NORAD_CAT_ID":63748,"ELEMENT_SET_NO":999,"REV_AT_EPOCH":277,"BSTAR":-0.003195526,"MEAN_MOTION_DOT":-0.00026485,"MEAN_MOTION_DDOT":0},{"OBJECT_NAME":"KUIPER-00037","OBJECT_ID":"2025-088AB","EPOCH":"2026-03-02T14:50:27.161088","MEAN_MOTION":14.79871354,"ECCENTRICITY":6.76e-5,"INCLINATION":51.9003,"RA_OF_ASC_NODE":144.3297,"ARG_OF_PERICENTER":39.3334,"MEAN_ANOMALY":320.7678,"EPHEMERIS_TYPE":0,"CLASSIFICATION_TYPE":"U","NORAD_CAT_ID":63749,"ELEMENT_SET_NO":999,"REV_AT_EPOCH":4726,"BSTAR":-4.3124e-5,"MEAN_MOTION_DOT":-5.49e-6,"MEAN_MOTION_DDOT":0},{"OBJECT_NAME":"KUIPER-00038","OBJECT_ID":"2025-088AC","EPOCH":"2026-03-02T13:36:36.063648","MEAN_MOTION":14.79909892,"ECCENTRICITY":7.73e-5,"INCLINATION":51.9029,"RA_OF_ASC_NODE":129.5873,"ARG_OF_PERICENTER":86.479,"MEAN_ANOMALY":273.6261,"EPHEMERIS_TYPE":0,"CLASSIFICATION_TYPE":"U","NORAD_CAT_ID":63750,"ELEMENT_SET_NO":999,"REV_AT_EPOCH":4646,"BSTAR":0.0005741,"MEAN_MOTION_DOT":4.156e-5,"MEAN_MOTION_DDOT":0},{"OBJECT_NAME":"KUIPER-00039","OBJECT_ID":"2025-134A","EPOCH":"2026-03-02T22:40:42.624192","MEAN_MOTION":14.7991688,"ECCENTRICITY":0.00010273,"INCLINATION":51.9,"RA_OF_ASC_NODE":262.9182,"ARG_OF_PERICENTER":61.8927,"MEAN_ANOMALY":298.2139,"EPHEMERIS_TYPE":0,"CLASSIFICATION_TYPE":"U","NORAD_CAT_ID":64500,"ELEMENT_SET_NO":999,"REV_AT_EPOCH":3907,"BSTAR":0.0005472877,"MEAN_MOTION_DOT":3.952e-5,"MEAN_MOTION_DDOT":0},{"OBJECT_NAME":"KUIPER-00040","OBJECT_ID":"2025-134B","EPOCH":"2026-03-02T19:08:10.537152","MEAN_MOTION":14.79928941,"ECCENTRICITY":0.00140218,"INCLINATION":51.8995,"RA_OF_ASC_NODE":274.7106,"ARG_OF_PERICENTER":243.1207,"MEAN_ANOMALY":116.8323,"EPHEMERIS_TYPE":0,"CLASSIFICATION_TYPE":"U","NORAD_CAT_ID":64501,"ELEMENT_SET_NO":999,"REV_AT_EPOCH":3889,"BSTAR":8.9556874e-5,"MEAN_MOTION_DOT":4.59e-6,"MEAN_MOTION_DDOT":0},{"OBJECT_NAME":"KUIPER-00041","OBJECT_ID":"2025-134C","EPOCH":"2026-03-02T19:12:43.524000","MEAN_MOTION":14.78691298,"ECCENTRICITY":0.00070895,"INCLINATION":51.8985,"RA_OF_ASC_NODE":276.0926,"ARG_OF_PERICENTER":241.9402,"MEAN_ANOMALY":118.0844,"EPHEMERIS_TYPE":0,"CLASSIFICATION_TYPE":"U","NORAD_CAT_ID":64502,"ELEMENT_SET_NO":999,"REV_AT_EPOCH":3887,"BSTAR":0.00055429749,"MEAN_MOTION_DOT":3.886e-5,"MEAN_MOTION_DDOT":0},{"OBJECT_NAME":"KUIPER-00042","OBJECT_ID":"2025-134D","EPOCH":"2026-03-02T20:49:11.604288","MEAN_MOTION":14.79873546,"ECCENTRICITY":0.00073808,"INCLINATION":51.8987,"RA_OF_ASC_NODE":271.7606,"ARG_OF_PERICENTER":257.1427,"MEAN_ANOMALY":102.8711,"EPHEMERIS_TYPE":0,"CLASSIFICATION_TYPE":"U","NORAD_CAT_ID":64503,"ELEMENT_SET_NO":999,"REV_AT_EPOCH":3894,"BSTAR":-0.00083561338,"MEAN_MOTION_DOT":-6.581e-5,"MEAN_MOTION_DDOT":0},{"OBJECT_NAME":"KUIPER-00043","OBJECT_ID":"2025-134E","EPOCH":"2026-03-02T22:16:10.019136","MEAN_MOTION":14.83778187,"ECCENTRICITY":8.922e-5,"INCLINATION":51.9,"RA_OF_ASC_NODE":263.1025,"ARG_OF_PERICENTER":311.7049,"MEAN_ANOMALY":48.3838,"EPHEMERIS_TYPE":0,"CLASSIFICATION_TYPE":"U","NORAD_CAT_ID":64504,"ELEMENT_SET_NO":999,"REV_AT_EPOCH":3907,"BSTAR":0.00058343926,"MEAN_MOTION_DOT":4.652e-5,"MEAN_MOTION_DDOT":0},{"OBJECT_NAME":"KUIPER-00044","OBJECT_ID":"2025-134F","EPOCH":"2026-03-02T19:04:12.211392","MEAN_MOTION":14.79986401,"ECCENTRICITY":0.00080896,"INCLINATION":51.898,"RA_OF_ASC_NODE":277.0818,"ARG_OF_PERICENTER":251.1505,"MEAN_ANOMALY":108.858,"EPHEMERIS_TYPE":0,"CLASSIFICATION_TYPE":"U","NORAD_CAT_ID":64505,"ELEMENT_SET_NO":999,"REV_AT_EPOCH":3886,"BSTAR":0.001928299,"MEAN_MOTION_DOT":0.00014535,"MEAN_MOTION_DDOT":0},{"OBJECT_NAME":"KUIPER-00046","OBJECT_ID":"2025-134G","EPOCH":"2026-03-02T19:10:26.923872","MEAN_MOTION":14.79931942,"ECCENTRICITY":7.415e-5,"INCLINATION":51.8971,"RA_OF_ASC_NODE":273.5236,"ARG_OF_PERICENTER":107.6008,"MEAN_ANOMALY":252.5035,"EPHEMERIS_TYPE":0,"CLASSIFICATION_TYPE":"U","NORAD_CAT_ID":64506,"ELEMENT_SET_NO":999,"REV_AT_EPOCH":3891,"BSTAR":0.00056485218,"MEAN_MOTION_DOT":4.087e-5,"MEAN_MOTION_DDOT":0}]
